ONEWEB-0634             
1 56075U 23043AF  25108.21660461 -.00000135  00000+0 -39332-3 0  9990
2 56075  87.9100 343.9161 0001502  89.8795 270.2507 13.15547590101433
ONEWEB-0635             
1 56076U 23043AG  25108.66818857 -.00000033  00000+0 -12140-3 0  9999
2 56076  87.9071 343.8283 0002092  79.9211 280.2155 13.15547400101523
ONEWEB-0636             
1 56077U 23043AH  25108.58421542  .00000048  00000+0  94791-4 0  9999
2 56077  87.9080 343.8494 0002019  77.5542 282.5814 13.15548473101492
ONEWEB-0637             
1 56078U 23043AJ  25109.11028443  .00000098  00000+0  22536-3 0  9995
2 56078  87.9097 343.7377 0002044  89.9300 270.2065 13.15546930101585
ONEWEB-0647             
1 56079U 23043AK  25108.57312759  .00000076  00000+0  16665-3 0  9993
2 56079  87.9096 343.8550 0001859  75.3771 284.7566 13.15548163100599
ONEWEB-0651             
1 56080U 23043AL  25108.56836698  .00000198  00000+0  49088-3 0  9997
2 56080  87.9098 343.8422 0002092  84.5595 275.5774 13.15547352100595
ONEWEB-0718             
1 56081U 23043AM  25108.56360965  .00000175  00000+0  43161-3 0  9998
2 56081  87.9098 343.8272 0001491  97.1323 262.9977 13.15547140101513
ONEWEB-0561             
1 56710U 23068A   25108.73246678 -.00000248  00000+0 -64277-3 0  9991
2 56710  87.9304 358.9765 0002302  73.2467 286.8918 13.20770846 94172
